{"fetched_at":"2026-07-17T06:38:39.740Z","source":"https://celestrak.org/NORAD/elements/gp.php?NAME=STRIX&FORMAT=JSON","constellation":"synspective","records":[{"OBJECT_NAME":"STRIX-1","OBJECT_ID":"2022-113A","EPOCH":"2026-07-16T20:53:07.778688","CLASSIFICATION_TYPE":"U","MEAN_MOTION":15.41051033,"ECCENTRICITY":0.0005547,"INCLINATION":97.4474,"RA_OF_ASC_NODE":260.4478,"ARG_OF_PERICENTER":127.6691,"MEAN_ANOMALY":232.5059,"EPHEMERIS_TYPE":0,"NORAD_CAT_ID":53815,"ELEMENT_SET_NO":999,"REV_AT_EPOCH":21201,"BSTAR":0.00036309,"MEAN_MOTION_DOT":0.00014928,"MEAN_MOTION_DDOT":0},{"OBJECT_NAME":"STRIX-3","OBJECT_ID":"2024-047A","EPOCH":"2026-07-16T21:01:06.604032","CLASSIFICATION_TYPE":"U","MEAN_MOTION":15.19826911,"ECCENTRICITY":0.0011791,"INCLINATION":97.6638,"RA_OF_ASC_NODE":174.0011,"ARG_OF_PERICENTER":328.6204,"MEAN_ANOMALY":31.4325,"EPHEMERIS_TYPE":0,"NORAD_CAT_ID":59224,"ELEMENT_SET_NO":999,"REV_AT_EPOCH":12925,"BSTAR":0.0002352,"MEAN_MOTION_DOT":0.00004977,"MEAN_MOTION_DDOT":0},{"OBJECT_NAME":"STRIX-4","OBJECT_ID":"2024-137A","EPOCH":"2026-07-16T20:46:10.000128","CLASSIFICATION_TYPE":"U","MEAN_MOTION":15.33348802,"ECCENTRICITY":0.0016303,"INCLINATION":43.0151,"RA_OF_ASC_NODE":116.0514,"ARG_OF_PERICENTER":143.2096,"MEAN_ANOMALY":216.988,"EPHEMERIS_TYPE":0,"NORAD_CAT_ID":60352,"ELEMENT_SET_NO":999,"REV_AT_EPOCH":10857,"BSTAR":0.00032624,"MEAN_MOTION_DOT":0.00010512,"MEAN_MOTION_DDOT":0},{"OBJECT_NAME":"STRIX-2","OBJECT_ID":"2024-248A","EPOCH":"2026-07-16T20:17:23.330688","CLASSIFICATION_TYPE":"U","MEAN_MOTION":15.09199511,"ECCENTRICITY":0.0013817,"INCLINATION":97.63,"RA_OF_ASC_NODE":153.3215,"ARG_OF_PERICENTER":229.4806,"MEAN_ANOMALY":130.522,"EPHEMERIS_TYPE":0,"NORAD_CAT_ID":62406,"ELEMENT_SET_NO":999,"REV_AT_EPOCH":8606,"BSTAR":0.00015805,"MEAN_MOTION_DOT":0.00002452,"MEAN_MOTION_DDOT":0},{"OBJECT_NAME":"STRIX-5","OBJECT_ID":"2025-229A","EPOCH":"2026-07-16T12:16:41.035584","CLASSIFICATION_TYPE":"U","MEAN_MOTION":15.04594263,"ECCENTRICITY":0.0037987,"INCLINATION":41.9275,"RA_OF_ASC_NODE":124.7654,"ARG_OF_PERICENTER":245.862,"MEAN_ANOMALY":113.8231,"EPHEMERIS_TYPE":0,"NORAD_CAT_ID":65971,"ELEMENT_SET_NO":999,"REV_AT_EPOCH":4139,"BSTAR":0.00013399,"MEAN_MOTION_DOT":0.00001745,"MEAN_MOTION_DDOT":0},{"OBJECT_NAME":"STRIX-6","OBJECT_ID":"2026-056A","EPOCH":"2026-07-16T10:26:08.093760","CLASSIFICATION_TYPE":"U","MEAN_MOTION":15.00330126,"ECCENTRICITY":0.0016624,"INCLINATION":50.2825,"RA_OF_ASC_NODE":211.5207,"ARG_OF_PERICENTER":355.9365,"MEAN_ANOMALY":4.1447,"EPHEMERIS_TYPE":0,"NORAD_CAT_ID":68291,"ELEMENT_SET_NO":999,"REV_AT_EPOCH":1766,"BSTAR":0.000091207,"MEAN_MOTION_DOT":0.00000891,"MEAN_MOTION_DDOT":0},{"OBJECT_NAME":"STRIX-7","OBJECT_ID":"2026-112A","EPOCH":"2026-07-16T20:16:32.600928","CLASSIFICATION_TYPE":"U","MEAN_MOTION":15.016152,"ECCENTRICITY":0.0024902,"INCLINATION":44.9082,"RA_OF_ASC_NODE":36.6602,"ARG_OF_PERICENTER":216.7141,"MEAN_ANOMALY":143.2025,"EPHEMERIS_TYPE":0,"NORAD_CAT_ID":69177,"ELEMENT_SET_NO":999,"REV_AT_EPOCH":833,"BSTAR":0.00015443,"MEAN_MOTION_DOT":0.00001813,"MEAN_MOTION_DDOT":0},{"OBJECT_NAME":"STRIX-8","OBJECT_ID":"2026-146A","EPOCH":"2026-07-16T19:29:37.491072","CLASSIFICATION_TYPE":"U","MEAN_MOTION":15.04442568,"ECCENTRICITY":0.0006928,"INCLINATION":41.9904,"RA_OF_ASC_NODE":4.1353,"ARG_OF_PERICENTER":34.0774,"MEAN_ANOMALY":326.0497,"EPHEMERIS_TYPE":0,"NORAD_CAT_ID":69701,"ELEMENT_SET_NO":999,"REV_AT_EPOCH":302,"BSTAR":0.00017914,"MEAN_MOTION_DOT":0.00002357,"MEAN_MOTION_DDOT":0}]}
